{"type":"FeatureCollection","features":[{"type":"Feature","id":1,"geometry":{"type":"Point","coordinates":[-96.286463366594703,30.580089627413546]},"properties":{"OBJECTID":1,"Id":0,"Name":"Mandy Cox, PA","long":0,"lat":0}},{"type":"Feature","id":2,"geometry":{"type":"Point","coordinates":[-96.289785912615969,30.581056753485463]},"properties":{"OBJECTID":2,"Id":0,"Name":"St. Joseph Health College Station Hospital","long":0,"lat":0}},{"type":"Feature","id":3,"geometry":{"type":"Point","coordinates":[-96.289614325732245,30.585923581460271]},"properties":{"OBJECTID":3,"Id":0,"Name":"Brazos Dental Associates","long":0,"lat":0}},{"type":"Feature","id":4,"geometry":{"type":"Point","coordinates":[-96.284341928759531,30.58729627653009]},"properties":{"OBJECTID":4,"Id":0,"Name":"Hooks Family Dentistry","long":0,"lat":0}},{"type":"Feature","id":5,"geometry":{"type":"Point","coordinates":[-96.274955965928839,30.579426717372385]},"properties":{"OBJECTID":5,"Id":0,"Name":"Southern Smiles, Family & Cosmetic Dentistry","long":0,"lat":0}},{"type":"Feature","id":6,"geometry":{"type":"Point","coordinates":[-96.279724681706512,30.582897412783627]},"properties":{"OBJECTID":6,"Id":0,"Name":"Baylor Scott & White Medical Center","long":0,"lat":0}},{"type":"Feature","id":7,"geometry":{"type":"Point","coordinates":[-96.280748782875747,30.577250871542088]},"properties":{"OBJECTID":7,"Id":0,"Name":"Cashion Dental","long":0,"lat":0}},{"type":"Feature","id":8,"geometry":{"type":"Point","coordinates":[-96.262463891023941,30.555997286402881]},"properties":{"OBJECTID":8,"Id":0,"Name":"College Station Modern Dentistry","long":0,"lat":0}},{"type":"Feature","id":9,"geometry":{"type":"Point","coordinates":[-96.265086526429982,30.557636433531659]},"properties":{"OBJECTID":9,"Id":0,"Name":"Erickson Dental","long":0,"lat":0}},{"type":"Feature","id":10,"geometry":{"type":"Point","coordinates":[-96.26584053410923,30.557874109865331]},"properties":{"OBJECTID":10,"Id":0,"Name":"SmileRight Kids Dentistry","long":0,"lat":0}},{"type":"Feature","id":11,"geometry":{"type":"Point","coordinates":[-96.265397964384462,30.558480594302978]},"properties":{"OBJECTID":11,"Id":0,"Name":"Andrews Orthodontics","long":0,"lat":0}},{"type":"Feature","id":12,"geometry":{"type":"Point","coordinates":[-96.261742666287276,30.553268106433464]},"properties":{"OBJECTID":12,"Id":0,"Name":"Wright Naeger Dentistry","long":0,"lat":0}},{"type":"Feature","id":13,"geometry":{"type":"Point","coordinates":[-96.260103519158505,30.554776121791942]},"properties":{"OBJECTID":13,"Id":0,"Name":"Elite Oral & Facial Surgery of College Station","long":0,"lat":0}},{"type":"Feature","id":14,"geometry":{"type":"Point","coordinates":[-96.299928488859237,30.578727652120865]},"properties":{"OBJECTID":14,"Id":0,"Name":"Brazos Valley Pediatric Dentistry","long":0,"lat":0}},{"type":"Feature","id":15,"geometry":{"type":"Point","coordinates":[-96.298233170207283,30.579717210364844]},"properties":{"OBJECTID":15,"Id":0,"Name":"Brazos Valley Orthodontics","long":0,"lat":0}},{"type":"Feature","id":16,"geometry":{"type":"Point","coordinates":[-96.297717853084009,30.580034615839327]},"properties":{"OBJECTID":16,"Id":0,"Name":"Heart of Texas Dentistry","long":0,"lat":0}},{"type":"Feature","id":17,"geometry":{"type":"Point","coordinates":[-96.308612052076597,30.573378523850202]},"properties":{"OBJECTID":17,"Id":0,"Name":"Dr. Black and Dr. Dickson Dental Care","long":0,"lat":0}},{"type":"Feature","id":18,"geometry":{"type":"Point","coordinates":[-96.322479214275816,30.584179557917892]},"properties":{"OBJECTID":18,"Id":0,"Name":"College Station Dental & Orthodontics","long":0,"lat":0}},{"type":"Feature","id":19,"geometry":{"type":"Point","coordinates":[-96.300252079072862,30.596078995801765]},"properties":{"OBJECTID":19,"Id":0,"Name":"Affordable Dentures & Implants","long":0,"lat":0}},{"type":"Feature","id":20,"geometry":{"type":"Point","coordinates":[-96.298565497823446,30.597245927693248]},"properties":{"OBJECTID":20,"Id":0,"Name":"Family Dentistry by Kavanagh H Lee DDS","long":0,"lat":0}},{"type":"Feature","id":21,"geometry":{"type":"Point","coordinates":[-96.291253940190856,30.601038456340575]},"properties":{"OBJECTID":21,"Id":0,"Name":"Aggieland Dental Associates: Mlcak Roxane G DDS","long":0,"lat":0}},{"type":"Feature","id":22,"geometry":{"type":"Point","coordinates":[-96.288136688773221,30.603327099178895]},"properties":{"OBJECTID":22,"Id":0,"Name":"Matthews Dental Group","long":0,"lat":0}},{"type":"Feature","id":23,"geometry":{"type":"Point","coordinates":[-96.28800524556496,30.604349966326787]},"properties":{"OBJECTID":23,"Id":0,"Name":"Brazos Valley Oral & Maxillofacial Surgery","long":0,"lat":0}},{"type":"Feature","id":24,"geometry":{"type":"Point","coordinates":[-96.287269163598722,30.604304558673025]},"properties":{"OBJECTID":24,"Id":0,"Name":"Williams Family Dentistry","long":0,"lat":0}},{"type":"Feature","id":25,"geometry":{"type":"Point","coordinates":[-96.314485730819356,30.611890922931401]},"properties":{"OBJECTID":25,"Id":0,"Name":"Texas Avenue Dental","long":0,"lat":0}},{"type":"Feature","id":26,"geometry":{"type":"Point","coordinates":[-96.32023870504436,30.615467569178804]},"properties":{"OBJECTID":26,"Id":0,"Name":"Aspen Dental - College Station, TX","long":0,"lat":0}},{"type":"Feature","id":27,"geometry":{"type":"Point","coordinates":[-96.33172277352152,30.631816284978544]},"properties":{"OBJECTID":27,"Id":0,"Name":"Calliham Dentistry","long":0,"lat":0}}]}